{
    "links": {
        "self": "http://www.neowsapp.com/rest/v1/neo/54068391?api_key=iIulBulltgU6a56xZRHN4H3l9WmuAYTsLGpBGhQ2"
    },
    "id": "54068391",
    "neo_reference_id": "54068391",
    "name": "(2020 TR6)",
    "designation": "2020 TR6",
    "nasa_jpl_url": "http://ssd.jpl.nasa.gov/sbdb.cgi?sstr=54068391",
    "absolute_magnitude_h": 27.756,
    "estimated_diameter": {
        "kilometers": {
            "estimated_diameter_min": 0.0074705913,
            "estimated_diameter_max": 0.0167047499
        },
        "meters": {
            "estimated_diameter_min": 7.4705912805,
            "estimated_diameter_max": 16.7047499353
        },
        "miles": {
            "estimated_diameter_min": 0.0046420088,
            "estimated_diameter_max": 0.0103798472
        },
        "feet": {
            "estimated_diameter_min": 24.5098146967,
            "estimated_diameter_max": 54.8056117777
        }
    },
    "is_potentially_hazardous_asteroid": false,
    "close_approach_data": [
        {
            "close_approach_date": "2019-03-29",
            "close_approach_date_full": "2019-Mar-29 02:33",
            "epoch_date_close_approach": 1553826780000,
            "relative_velocity": {
                "kilometers_per_second": "5.3972581601",
                "kilometers_per_hour": "19430.1293762707",
                "miles_per_hour": "12073.1267782722"
            },
            "miss_distance": {
                "astronomical": "1.8860993553",
                "lunar": "733.6926492117",
                "kilometers": "282156446.161253211",
                "miles": "175323885.7679918718"
            },
            "orbiting_body": "Juptr"
        },
        {
            "close_approach_date": "2020-10-18",
            "close_approach_date_full": "2020-Oct-18 21:26",
            "epoch_date_close_approach": 1603056360000,
            "relative_velocity": {
                "kilometers_per_second": "14.9980839105",
                "kilometers_per_hour": "53993.1020777039",
                "miles_per_hour": "33549.2138993377"
            },
            "miss_distance": {
                "astronomical": "0.01072551",
                "lunar": "4.17222339",
                "kilometers": "1604513.4506637",
                "miles": "996998.42681106"
            },
            "orbiting_body": "Earth"
        }
    ],
    "orbital_data": {
        "orbit_id": "1",
        "orbit_determination_date": "2020-10-16 17:12:04",
        "first_observation_date": "2020-10-11",
        "last_observation_date": "2020-10-16",
        "data_arc_in_days": 5,
        "observations_used": 17,
        "orbit_uncertainty": "8",
        "minimum_orbit_intersection": ".000209934",
        "jupiter_tisserand_invariant": "3.223",
        "epoch_osculation": "2459135.5",
        "eccentricity": ".6567245465426776",
        "semi_major_axis": "2.35620551676698",
        "inclination": ".7969431884600017",
        "ascending_node_longitude": "205.7641432711516",
        "orbital_period": "1321.046727679298",
        "perihelion_distance": ".8088275172068297",
        "perihelion_argument": "239.2292821825005",
        "aphelion_distance": "3.90358351632713",
        "perihelion_time": "2459180.451032017946",
        "mean_anomaly": "347.7503413108722",
        "mean_motion": ".2725111780356303",
        "equinox": "J2000",
        "orbit_class": {
            "orbit_class_type": "APO",
            "orbit_class_description": "Near-Earth asteroid orbits which cross the Earth’s orbit similar to that of 1862 Apollo",
            "orbit_class_range": "a (semi-major axis) > 1.0 AU; q (perihelion) < 1.017 AU"
        }
    },
    "is_sentry_object": false
}